STARLINK-30494          
1 57970U 23151G   26068.36049035 -.00001272  00000+0 -35691-4 0  9993
2 57970  43.0027 192.4566 0001155 241.5536 118.5200 15.28417441137406
STARLINK-34092          
1 63904U 25095Q   26067.37483049  .00020298  00000+0  74418-3 0  9999
2 63904  43.0048 183.9185 0004049 289.7092  70.3323 15.27616990 47579
